NORAD_CAT_ID,OBJECT_NAME,OBJECT_TYPE,EPOCH,MEAN_MOTION,ECCENTRICITY,INCLINATION,RA_OF_ASC_NODE,ARG_OF_PERICENTER,MEAN_ANOMALY,BSTAR,MEAN_MOTION_DOT,MEAN_MOTION_DDOT,TLE_LINE0,TLE_LINE1,TLE_LINE2,SEMIMAJOR_AXIS,PERIOD,APOGEE,PERIGEE,DECAYED
53853.0,STARLINK-4794,PAYLOAD,2023-01-02 18:10:53,15.08490815,0.0001240999999999,53.218,109.9255,58.2703,301.841,0.021823,0.00361844,0.0,0 STARLINK-4794,1 53853U 22114AM  23002.75755809  .00361844  00000-0  21823-1 0  9990,2 53853  53.2180 109.9255 0001241  58.2703 301.8410 15.08490815 17027,6918.948,95.46,541.672,539.9540000000002,0.0
53853.0,STARLINK-4794,PAYLOAD,2023-01-03 08:00:01,15.08858749,0.0001548,53.2179,107.3399,70.2459,179.2807,-0.0017812,-0.00028538,0.0,0 STARLINK-4794,1 53853U 22114AM  23003.33334491 -.00028538  00000-0 -17812-2 0  9991,2 53853  53.2179 107.3399 0001548  70.2459 179.2807 15.08858749 17108,6917.823,95.436,540.759,538.617,0.0
53853.0,STARLINK-4794,PAYLOAD,2023-01-03 14:00:01,15.08832365,0.0001605,53.2179,106.2191,61.7821,106.4544,0.00082448,0.00012855,0.0,0 STARLINK-4794,1 53853U 22114AM  23003.58334491  .00012855  00000-0  82448-3 0  9999,2 53853  53.2179 106.2191 0001605  61.7821 106.4544 15.08832365  1309,6917.904,95.438,540.879,538.658,0.0
53853.0,STARLINK-4794,PAYLOAD,2023-01-03 22:00:00,15.08875991,0.0001512,53.218,104.7221,60.4812,119.3388,-0.003401,-0.00054062,0.0,0 STARLINK-4794,1 53853U 22114AM  23003.91667824 -.00054062  00000-0 -34010-2 0  9994,2 53853  53.2180 104.7221 0001512  60.4812 119.3388 15.08875991 17196,6917.77,95.435,540.681,538.589,0.0
53853.0,STARLINK-4794,PAYLOAD,2023-01-04 14:00:01,15.08821267,0.0001592,53.2184,101.7306,56.2968,146.8088,-0.00037515,-6.25e-05,0.0,0 STARLINK-4794,1 53853U 22114AM  23004.58335648 -.00006250  00000-0 -37515-3 0  9994,2 53853  53.2184 101.7306 0001592  56.2968 146.8088 15.08821267  1309,6917.938,95.439,540.904,538.701,0.0
53853.0,STARLINK-4794,PAYLOAD,2023-01-04 16:00:00,15.08795467,0.0001610999999999,53.2183,101.3569,54.9379,241.0052,0.0032412,0.00051611,0.0,0 STARLINK-4794,1 53853U 22114AM  23004.66667824  .00051611  00000-0  32412-2 0  9996,2 53853  53.2183 101.3569 0001611  54.9379 241.0052 15.08795467 17306,6918.017,95.44,540.996,538.7669999999998,0.0
53853.0,STARLINK-4794,PAYLOAD,2023-01-04 22:00:00,15.08846162,0.0001488,53.2186,100.2333,55.6783,158.9367,-0.00021227,-3.665e-05,0.0,0 STARLINK-4794,1 53853U 22114AM  23004.91667824 -.00003665  00000-0 -21227-3 0  9995,2 53853  53.2186 100.2333 0001488  55.6783 158.9367 15.08846162  1302,6917.861999999999,95.437,540.756,538.697,0.0
53853.0,STARLINK-4794,PAYLOAD,2023-01-05 14:00:01,15.08823501,0.0001619,53.219,97.2418,54.8734,182.943,-0.00016985,-2.989e-05,0.0,0 STARLINK-4794,1 53853U 22114AM  23005.58334491 -.00002989  00000-0 -16985-3 0  9993,2 53853  53.2190  97.2418 0001619  54.8734 182.9430 15.08823501  1309,6917.931,95.439,540.9159999999998,538.6759999999998,0.0
53853.0,STARLINK-4794,PAYLOAD,2023-01-05 20:00:01,15.08841667,0.0001594,53.2187,96.1192,53.7571,102.7343,-0.0024815,-0.00039566,0.0,0 STARLINK-4794,1 53853U 22114AM  23005.83334491 -.00039566  00000-0 -24815-2 0  9992,2 53853  53.2187  96.1192 0001594  53.7571 102.7343 15.08841667  1307,6917.875,95.437,540.8430000000002,538.638,0.0
53853.0,STARLINK-4794,PAYLOAD,2023-01-06 06:26:18,15.08822094,0.0001554,53.2195,94.1664,64.0884,296.0269,-1.7151e-05,-5.61e-06,0.0,0 STARLINK-4794,1 53853U 22114AM  23006.26826495 -.00000561  00000-0 -17151-4 0  9990,2 53853  53.2195  94.1664 0001554  64.0884 296.0269 15.08822094 17557,6917.935,95.439,540.875,538.725,0.0
53853.0,STARLINK-4794,PAYLOAD,2023-01-06 12:47:50,15.08829091,0.0001609,53.2195,92.9778,58.2255,301.8894,4.349600000000001e-05,4.04e-06,0.0,0 STARLINK-4794,1 53853U 22114AM  23006.53322171  .00000404  00000-0  43496-4 0  9997,2 53853  53.2195  92.9778 0001609  58.2255 301.8894 15.08829091 17594,6917.914000000002,95.438,540.8919999999998,538.6659999999998,0.0
53853.0,STARLINK-4794,PAYLOAD,2023-01-06 23:55:31,15.08845899,0.0001575,53.2188,90.8956,58.069,302.0455,0.00011156,1.488e-05,0.0,0 STARLINK-4794,1 53853U 22114AM  23006.99689217  .00001488  00000-0  11156-3 0  9994,2 53853  53.2188  90.8956 0001575  58.0690 302.0455 15.08845899 17662,6917.861999999999,95.437,540.817,538.638,0.0
53853.0,STARLINK-4794,PAYLOAD,2023-01-07 04:41:40,15.08851225,0.0001581,53.2186,90.00299999999999,60.7022,299.4128,0.0002216,3.242e-05,0.0,0 STARLINK-4794,1 53853U 22114AM  23007.19560940  .00003242  00000-0  22160-3 0  9995,2 53853  53.2186  90.0030 0001581  60.7022 299.4128 15.08851225 18231,6917.846,95.437,540.805,538.617,0.0
53853.0,STARLINK-4794,PAYLOAD,2023-01-07 15:49:22,15.08850361,0.0001623,53.2187,87.9221,59.2659,300.8493,0.0002014,2.92e-05,0.0,0 STARLINK-4794,1 53853U 22114AM  23007.65929001  .00002920  00000-0  20140-3 0  9991,2 53853  53.2187  87.9221 0001623  59.2659 300.8493 15.08850361 18305,6917.849,95.437,540.836,538.591,0.0
53853.0,STARLINK-4794,PAYLOAD,2023-01-07 23:46:18,15.08840129,0.0001744,53.2183,86.4298,117.9097,242.2072,7.2811e-05,8.71e-06,0.0,0 STARLINK-4794,1 53853U 22114AM  23007.99049190  .00000871  00000-0  72811-4 0  9996,2 53853  53.2183  86.4298 0001744 117.9097 242.2072 15.08840129 17819,6917.88,95.438,540.951,538.539,0.0
53853.0,STARLINK-4794,PAYLOAD,2023-01-08 14:04:47,15.08833784,0.0001647,53.218,83.7593,61.3553,298.7605,9.8784e-05,1.284e-05,0.0,0 STARLINK-4794,1 53853U 22114AM  23008.58666115  .00001284  00000-0  98784-4 0  9990,2 53853  53.2180  83.7593 0001647  61.3553 298.7605 15.08833784 17902,6917.899,95.438,540.904,538.625,0.0
53853.0,STARLINK-4794,PAYLOAD,2023-01-08 22:01:41,15.08859814,0.0001545,53.2182,82.2722,56.3973,303.7167,0.00031823,4.783e-05,0.0,0 STARLINK-4794,1 53853U 22114AM  23008.91784578  .00004783  00000-0  31823-3 0  9998,2 53853  53.2182  82.2722 0001545  56.3973 303.7167 15.08859814 18496,6917.82,95.436,540.754,538.616,0.0
53853.0,STARLINK-4794,PAYLOAD,2023-01-09 04:23:14,15.08861519,0.0001633,53.2175,81.0832,55.6478,304.4669,0.00034835,5.264e-05,0.0,0 STARLINK-4794,1 53853U 22114AM  23009.18280438  .00005264  00000-0  34835-3 0  9995,2 53853  53.2175  81.0832 0001633  55.6478 304.4669 15.08861519 17991,6917.815,95.436,540.809,538.55,0.0
53853.0,STARLINK-4794,PAYLOAD,2023-01-09 13:55:33,15.08853242,0.0001358,53.2176,79.2983,55.738,304.3741,0.00029084,4.345e-05,0.0,0 STARLINK-4794,1 53853U 22114AM  23009.58024573  .00004345  00000-0  29084-3 0  9994,2 53853  53.2176  79.2983 0001358  55.7380 304.3741 15.08853242 18596,6917.84,95.437,540.644,538.765,0.0
53853.0,STARLINK-4794,PAYLOAD,2023-01-09 21:52:28,15.08851684,0.0001296,53.218,77.811,54.1756,305.9356,0.00011577,1.556e-05,0.0,0 STARLINK-4794,1 53853U 22114AM  23009.91144309  .00001556  00000-0  11577-3 0  9990,2 53853  53.2180  77.8110 0001296  54.1756 305.9356 15.08851684 18641,6917.845,95.437,540.606,538.813,0.0
53853.0,STARLINK-4794,PAYLOAD,2023-01-10 09:00:11,15.08838945,0.0001153,53.2194,75.7311,50.0895,310.0198,-4.7787e-05,-1.048e-05,0.0,0 STARLINK-4794,1 53853U 22114AM  23010.37512854 -.00001048  00000-0 -47787-4 0  9997,2 53853  53.2194  75.7311 0001153  50.0895 310.0198 15.08838945 18171,6917.884,95.438,540.5459999999998,538.951,0.0
53853.0,STARLINK-4794,PAYLOAD,2023-01-10 13:46:20,15.08841004,0.000149,53.2183,74.8378,55.8193,304.2941,-8.3414e-05,-1.615e-05,0.0,0 STARLINK-4794,1 53853U 22114AM  23010.57384952 -.00001615  00000-0 -83414-4 0  9992,2 53853  53.2183  74.8378 0001490  55.8193 304.2941 15.08841004 18744,6917.877,95.437,540.773,538.712,0.0
53853.0,STARLINK-4794,PAYLOAD,2023-01-11 02:29:25,15.08853151,0.0001629999999999,53.2185,72.4609,47.2768,312.8361,0.00013519,1.865e-05,0.0,0 STARLINK-4794,1 53853U 22114AM  23011.10376327  .00001865  00000-0  13519-3 0  9992,2 53853  53.2185  72.4609 0001630  47.2768 312.8361 15.08853151 18282,6917.84,95.437,540.8330000000002,538.578,0.0
53853.0,STARLINK-4794,PAYLOAD,2023-01-11 10:26:19,15.08865093,0.0001607,53.2183,70.9731,53.1598,306.9541,0.00037387,5.671e-05,0.0,0 STARLINK-4794,1 53853U 22114AM  23011.43495265  .00005671  00000-0  37387-3 0  9999,2 53853  53.2183  70.9731 0001607  53.1598 306.9541 15.08865093 18338,6917.804,95.436,540.78,538.557,0.0
53853.0,STARLINK-4794,PAYLOAD,2023-01-12 05:30:58,15.0883991,0.0001593,53.2185,67.4048,54.8532,305.2609,0.00011572,1.554e-05,0.0,0 STARLINK-4794,1 53853U 22114AM  23012.22984148  .00001554  00000-0  11572-3 0  9994,2 53853  53.2185  67.4048 0001593  54.8532 305.2609 15.08839910 18451,6917.880999999999,95.438,540.8480000000002,538.644,0.0
53853.0,STARLINK-4794,PAYLOAD,2023-01-12 13:27:53,15.08850332,0.0001576999999999,53.2181,65.9165,58.3303,301.7843,0.00019279,2.782e-05,0.0,0 STARLINK-4794,1 53853U 22114AM  23012.56103519  .00002782  00000-0  19279-3 0  9992,2 53853  53.2181  65.9165 0001577  58.3303 301.7843 15.08850332 18505,6917.849,95.437,540.805,538.623,0.0
53853.0,STARLINK-4794,PAYLOAD,2023-01-12 23:00:13,15.08819334,0.0001452,53.2188,64.1343,55.385,304.7278,-0.00032942,-5.524e-05,0.0,0 STARLINK-4794,1 53853U 22114AM  23012.95849257 -.00005524  00000-0 -32942-3 0  9992,2 53853  53.2188  64.1343 0001452  55.3850 304.7278 15.08819334 18565,6917.944,95.439,540.813,538.804,0.0
53853.0,STARLINK-4794,PAYLOAD,2023-01-13 10:07:55,15.08822888,0.0001457,53.2187,62.0535,61.8555,298.2585,-0.00021032,-3.632e-05,0.0,0 STARLINK-4794,1 53853U 22114AM  23013.42217267 -.00003632  00000-0 -21032-3 0  9991,2 53853  53.2187  62.0535 0001457  61.8555 298.2585 15.08822888 18637,6917.933000000001,95.439,540.806,538.79,0.0
53853.0,STARLINK-4794,PAYLOAD,2023-01-13 19:40:14,15.08826669,0.0001557,53.2183,60.269,64.67399999999999,295.4414,2.4352e-05,9.9e-07,0.0,0 STARLINK-4794,1 53853U 22114AM  23013.81961727  .00000099  00000-0  24352-4 0  9992,2 53853  53.2183  60.2690 0001557  64.6740 295.4414 15.08826669 19231,6917.920999999999,95.438,540.863,538.7090000000001,0.0
